OBJECT_NAME,OBJECT_ID,EPOCH,MEAN_MOTION,ECCENTRICITY,INCLINATION,RA_OF_ASC_NODE,ARG_OF_PERICENTER,MEAN_ANOMALY,EPHEMERIS_TYPE,CLASSIFICATION_TYPE,NORAD_CAT_ID,ELEMENT_SET_NO,REV_AT_EPOCH,BSTAR,MEAN_MOTION_DOT,MEAN_MOTION_DDOT
SHIJIAN-17 (SJ-17),2016-065A,2026-06-27T14:45:59.608800,0.99859162,.0002252,5.7786,72.4829,29.4589,255.4832,0,U,41838,999,3530,0,.126E-5,0
GOES 16,2016-071A,2026-06-28T22:13:38.762976,1.00272095,.00006068,0.3698,85.5104,16.2695,43.9539,0,U,41866,999,3522,0,-.8E-6,0
TIANLIAN 1-04,2016-072A,2026-06-28T20:08:31.498944,1.00273808,.00429947,0.8983,82.8527,90.3696,222.6384,0,U,41869,999,3541,0,.42E-6,0
WGS F8 (USA 272),2016-075A,2026-06-28T14:52:53.723136,1.00266499,.00001161,0.0483,56.8179,191.0880,41.8932,0,U,41879,999,3493,0,0,0
FENGYUN 4A,2016-077A,2026-06-28T23:18:47.141280,1.00277966,.00079308,2.3520,80.1628,158.0328,152.2251,0,U,41882,999,3504,0,-.347E-5,0
ECHOSTAR 19,2016-079A,2026-06-28T20:32:57.926400,1.00272694,.00015999,0.0178,27.2901,69.4218,31.3700,0,U,41893,999,3482,0,-.127E-5,0
JCSAT-110A (JCSAT-15),2016-082A,2026-06-28T09:33:42.161760,1.00271854,.00008968,0.0180,9.7986,94.4307,65.7640,0,U,41903,999,3487,0,-.339E-5,0
STAR ONE D1,2016-082B,2026-06-28T22:19:30.701280,1.00269279,.00026323,0.0338,49.3926,78.2254,40.3176,0,U,41904,999,3489,0,0,0
TJS-2,2017-001A,2026-06-28T23:02:26.209248,1.00272678,.0000824,0.8629,85.1936,47.3156,196.6889,0,U,41911,999,3483,0,.4E-7,0
SBIRS GEO-4 (USA 273),2017-004A,2026-06-28T22:38:25.300032,1.00274685,.00023906,2.2646,43.5950,47.1315,186.8323,0,U,41937,999,3471,0,.133E-5,0
HISPASAT 36W-1,2017-006A,2026-06-28T17:25:19.576128,1.00264884,.00014738,0.0121,294.6046,157.8160,49.7281,0,U,41942,999,3436,0,-.234E-5,0
TELKOM 3S,2017-007A,2026-06-28T19:51:48.102048,1.00273611,.00026124,0.0182,71.3882,26.2016,235.2869,0,U,41944,999,3425,0,-.351E-5,0
INTELSAT 32E (IS-32E),2017-007B,2026-06-28T17:23:12.280416,1.00269366,.00007684,0.0253,13.9692,345.2204,135.2569,0,U,41945,999,3434,0,0,0
ECHOSTAR 23,2017-014A,2026-06-28T22:12:08.906976,1.00270087,.0001957,0.0285,25.8486,71.8316,42.4779,0,U,42070,999,3404,0,0,0
WGS F9 (USA 275),2017-016A,2026-06-28T17:32:03.929856,1.00272419,.00002811,0.0272,356.6515,62.1353,109.0649,0,U,42075,999,3401,0,0,0
SES-10,2017-017A,2026-06-28T18:59:05.677152,1.00271263,.00030375,0.0170,34.5688,67.8476,32.3463,0,U,42432,999,3387,0,-.261E-5,0
CHINASAT 16 (SJ-13),2017-018A,2026-06-29T00:57:38.317248,1.00271193,.0003971,0.0948,89.7774,125.7676,186.5087,0,U,42662,999,3386,0,-.341E-5,0
KOREASAT 7,2017-023A,2026-06-28T18:50:38.742432,1.00272442,.00006742,0.0243,23.5886,55.5583,236.2957,0,U,42691,999,3348,0,-.35E-5,0
SGDC,2017-023B,2026-06-28T10:33:20.538720,1.00272611,.00028204,0.0266,63.5556,38.1626,258.3094,0,U,42692,999,3352,0,-.238E-5,0
GSAT-9,2017-024A,2026-06-28T23:11:17.858688,1.00274147,.00020847,0.0454,89.2442,18.6744,254.2578,0,U,42695,999,3341,0,-.275E-5,0
INMARSAT 5-F4,2017-025A,2026-06-28T21:17:01.038048,1.00269674,.0000234,0.0281,29.4368,31.3395,231.9618,0,U,42698,999,3339,0,0,0
SES-15,2017-026A,2026-06-28T16:58:40.533312,1.00268263,.00007749,0.0207,337.0696,104.4728,320.7558,0,U,42709,999,754,0,.72E-6,0
QZS-2 (MICHIBIKI-2),2017-028A,2026-06-28T11:28:04.382400,1.00281030,.07588829,39.4102,242.9880,269.3858,78.2980,0,U,42738,999,773,0,-.124E-5,0
VIASAT-2,2017-029A,2026-06-28T13:50:16.029024,1.00273271,.00005293,0.0169,303.9376,137.0847,333.3383,0,U,42740,999,3331,0,-.254E-5,0
EUTELSAT 172B,2017-029B,2026-06-28T21:49:50.391264,1.00271239,.00003314,0.0328,127.3936,305.3901,343.6786,0,U,42741,999,3385,0,.6E-7,0
GSAT-19,2017-031A,2026-06-28T22:57:04.223232,1.00272422,.00071363,0.0208,21.5534,57.2960,230.3226,0,U,42747,999,3326,0,0,0
ECHOSTAR 21,2017-032A,2026-06-28T20:36:38.649024,1.00273956,.00026142,1.7699,356.4671,92.1594,147.7570,0,U,42749,999,3321,0,.78E-6,0
BULGARIASAT-1,2017-038A,2026-06-28T22:43:49.992960,1.00268014,.00035244,0.0367,76.3063,29.8265,153.7580,0,U,42801,999,3296,0,.22E-6,0
HELLAS-SAT 3,2017-040A,2026-06-28T22:54:34.461792,1.00270532,.00042848,0.0441,40.8972,20.7077,238.0795,0,U,42814,999,3292,0,.164E-5,0
GSAT-17,2017-040B,2026-06-28T22:24:17.041248,1.00271954,.00013398,0.0347,85.8544,202.0286,58.7166,0,U,42815,999,3290,0,-.247E-5,0
INTELSAT 35E (IS-35E),2017-041A,2026-06-28T15:42:55.284192,1.00270796,.00023672,0.0048,94.5966,3.5797,19.8051,0,U,42818,999,3293,0,-.227E-5,0
COSMOS 2520,2017-046A,2026-06-28T22:56:19.295232,1.00271121,.00007811,0.0411,102.1683,358.4379,205.5132,0,U,42907,999,3251,0,.148E-5,0
