SHIJIAN-17 (SJ-17)      
1 41838U 16065A   26178.61527325  .00000126  00000+0  00000+0 0  9994
2 41838   5.7786  72.4829 0002252  29.4589 255.4832  0.99859162 35308
GOES 16                 
1 41866U 16071A   26179.92614309 -.00000080  00000+0  00000+0 0  9996
2 41866   0.3698  85.5104 0000606  16.2695  43.9539  1.00272095 35228
TIANLIAN 1-04           
1 41869U 16072A   26179.83925346  .00000042  00000+0  00000+0 0  9993
2 41869   0.8983  82.8527 0042994  90.3696 222.6384  1.00273808 35410
WGS F8 (USA 272)        
1 41879U 16075A   26179.62006624  .00000000  00000+0  00000+0 0  9997
2 41879   0.0483  56.8179 0000116 191.0880  41.8932  1.00266499 34930
FENGYUN 4A              
1 41882U 16077A   26179.97137895 -.00000347  00000+0  00000+0 0  9991
2 41882   2.3520  80.1628 0007930 158.0328 152.2251  1.00277966 35046
ECHOSTAR 19             
1 41893U 16079A   26179.85622600 -.00000127  00000+0  00000+0 0  9991
2 41893   0.0178  27.2901 0001599  69.4218  31.3700  1.00272694 34820
JCSAT-110A (JCSAT-15)   
1 41903U 16082A   26179.39840465 -.00000339  00000+0  00000+0 0  9992
2 41903   0.0180   9.7986 0000896  94.4307  65.7640  1.00271854 34875
STAR ONE D1             
1 41904U 16082B   26179.93021645  .00000000  00000+0  00000+0 0  9998
2 41904   0.0338  49.3926 0002632  78.2254  40.3176  1.00269279 34899
TJS-2                   
1 41911U 17001A   26179.96002557  .00000004  00000+0  00000+0 0  9996
2 41911   0.8629  85.1936 0000824  47.3156 196.6889  1.00272678 34833
SBIRS GEO-4 (USA 273)   
1 41937U 17004A   26179.94334838  .00000133  00000+0  00000+0 0  9998
2 41937   2.2646  43.5950 0002390  47.1315 186.8323  1.00274685 34716
HISPASAT 36W-1          
1 41942U 17006A   26179.72592102 -.00000234  00000+0  00000+0 0  9995
2 41942   0.0121 294.6046 0001473 157.8160  49.7281  1.00264884 34360
TELKOM 3S               
1 41944U 17007A   26179.82764007 -.00000351  00000+0  00000+0 0  9994
2 41944   0.0182  71.3882 0002612  26.2016 235.2869  1.00273611 34252
INTELSAT 32E (IS-32E)   
1 41945U 17007B   26179.72444769  .00000000  00000+0  00000+0 0  9994
2 41945   0.0253  13.9692 0000768 345.2204 135.2569  1.00269366 34344
ECHOSTAR 23             
1 42070U 17014A   26179.92510309  .00000000  00000+0  00000+0 0  9998
2 42070   0.0285  25.8486 0001957  71.8316  42.4779  1.00270087 34040
WGS F9 (USA 275)        
1 42075U 17016A   26179.73060104  .00000000  00000+0  00000+0 0  9997
2 42075   0.0272 356.6515 0000281  62.1353 109.0649  1.00272419 34016
SES-10                  
1 42432U 17017A   26179.79103793 -.00000261  00000+0  00000+0 0  9993
2 42432   0.0170  34.5688 0003037  67.8476  32.3463  1.00271263 33874
CHINASAT 16 (SJ-13)     
1 42662U 17018A   26180.04002682 -.00000341  00000+0  00000+0 0  9993
2 42662   0.0948  89.7774 0003971 125.7676 186.5087  1.00271193 33868
KOREASAT 7              
1 42691U 17023A   26179.78517063 -.00000350  00000+0  00000+0 0  9994
2 42691   0.0243  23.5886 0000674  55.5583 236.2957  1.00272442 33487
SGDC                    
1 42692U 17023B   26179.43982105 -.00000238  00000+0  00000+0 0  9995
2 42692   0.0266  63.5556 0002820  38.1626 258.3094  1.00272611 33521
GSAT-9                  
1 42695U 17024A   26179.96617892 -.00000275  00000+0  00000+0 0  9996
2 42695   0.0454  89.2442 0002084  18.6744 254.2578  1.00274147 33414
INMARSAT 5-F4           
1 42698U 17025A   26179.88681757  .00000000  00000+0  00000+0 0  9997
2 42698   0.0281  29.4368 0000234  31.3395 231.9618  1.00269674 33390
SES-15                  
1 42709U 17026A   26179.70741358  .00000072  00000+0  00000+0 0  9995
2 42709   0.0207 337.0696 0000774 104.4728 320.7558  1.00268263  7545
QZS-2 (MICHIBIKI-2)     
1 42738U 17028A   26179.47782850 -.00000124  00000+0  00000+0 0  9994
2 42738  39.4102 242.9880 0758882 269.3858  78.2980  1.00281030  7733
VIASAT-2                
1 42740U 17029A   26179.57657441 -.00000254  00000+0  00000+0 0  9990
2 42740   0.0169 303.9376 0000529 137.0847 333.3383  1.00273271 33311
EUTELSAT 172B           
1 42741U 17029B   26179.90961101  .00000006  00000+0  00000+0 0  9993
2 42741   0.0328 127.3936 0000331 305.3901 343.6786  1.00271239 33853
GSAT-19                 
1 42747U 17031A   26179.95629888  .00000000  00000+0  00000+0 0  9994
2 42747   0.0208  21.5534 0007136  57.2960 230.3226  1.00272422 33264
ECHOSTAR 21             
1 42749U 17032A   26179.85878066  .00000078  00000+0  00000+0 0  9995
2 42749   1.7699 356.4671 0002614  92.1594 147.7570  1.00273956 33218
BULGARIASAT-1           
1 42801U 17038A   26179.94710640  .00000022  00000+0  00000+0 0  9992
2 42801   0.0367  76.3063 0003524  29.8265 153.7580  1.00268014 32965
HELLAS-SAT 3            
1 42814U 17040A   26179.95456553  .00000164  00000+0  00000+0 0  9997
2 42814   0.0441  40.8972 0004284  20.7077 238.0795  1.00270532 32921
GSAT-17                 
1 42815U 17040B   26179.93353057 -.00000247  00000+0  00000+0 0  9994
2 42815   0.0347  85.8544 0001339 202.0286  58.7166  1.00271954 32902
INTELSAT 35E (IS-35E)   
1 42818U 17041A   26179.65480653 -.00000227  00000+0  00000+0 0  9998
2 42818   0.0048  94.5966 0002367   3.5797  19.8051  1.00270796 32938
COSMOS 2520             
1 42907U 17046A   26179.95577888  .00000148  00000+0  00000+0 0  9993
2 42907   0.0411 102.1683 0000781 358.4379 205.5132  1.00271121 32510
